[{"OBJECT_NAME":"FLOCK 4Q-25","OBJECT_ID":"2023-174AZ","EPOCH":"2026-03-09T17:21:45.287712","MEAN_MOTION":15.56567031,"ECCENTRICITY":0.00053011,"INCLINATION":97.3856,"RA_OF_ASC_NODE":158.7889,"ARG_OF_PERICENTER":135.0347,"MEAN_ANOMALY":225.1339,"EPHEMERIS_TYPE":0,"CLASSIFICATION_TYPE":"U","NORAD_CAT_ID":58303,"ELEMENT_SET_NO":999,"REV_AT_EPOCH":13047,"BSTAR":0.00071767971,"MEAN_MOTION_DOT":0.00051136,"MEAN_MOTION_DDOT":0},{"OBJECT_NAME":"OBJECT G","OBJECT_ID":"2015-049G","EPOCH":"2026-03-09T22:15:17.881920","MEAN_MOTION":15.59177625,"ECCENTRICITY":0.00051773,"INCLINATION":97.4719,"RA_OF_ASC_NODE":107.5155,"ARG_OF_PERICENTER":204.1923,"MEAN_ANOMALY":155.9091,"EPHEMERIS_TYPE":0,"CLASSIFICATION_TYPE":"U","NORAD_CAT_ID":40905,"ELEMENT_SET_NO":999,"REV_AT_EPOCH":58094,"BSTAR":0.00048107753,"MEAN_MOTION_DOT":0.0003769,"MEAN_MOTION_DDOT":0}]
